HAWK-A                  
1 43765U 18099H   26186.39550292  .00010704  00000+0  42633-3 0  9992
2 43765  97.3899 238.3955 0033746 218.9339 140.9468 15.24877386415873
HAWK-B                  
1 43794U 18099AN  26186.57023020  .00008956  00000+0  37846-3 0  9994
2 43794  97.3947 237.9442 0030570 236.9249 122.9052 15.23039141415830
HAWK-C                  
1 43799U 18099AT  26186.13421405  .00013944  00000+0  49548-3 0  9995
2 43799  97.3876 239.1386 0039336 219.8315 140.0036 15.28377950416652
HAWK-2C                 
1 47502U 21006CT  26186.08196231  .00011044  00000+0  32819-3 0  9995
2 47502  97.2265 230.0360 0008329 129.7517 230.4462 15.34896115302244
HAWK-2A                 
1 47505U 21006CW  26186.54063285  .00009415  00000+0  28003-3 0  9990
2 47505  97.2307 231.1741 0007847 131.4447 228.7472 15.34916957302311
HAWK-2B                 
1 47508U 21006CZ  26186.07863533  .00012715  00000+0  37580-3 0  9992
2 47508  97.2176 229.0244 0008376 131.1027 229.0942 15.35030031302240
HAWK-3B                 
1 48931U 21059BE  26186.35803112  .00061613  00000+0  48717-3 0  9994
2 48931  97.6647  24.8043 0003632 237.9442 122.1467 15.71176000280700
HAWK-3C                 
1 48948U 21059BX  26186.10295877  .00067598  00000+0  53471-3 0  9999
2 48948  97.6762  30.2409 0003825 241.0163 119.0716 15.71143486280662
HAWK-3A                 
1 48957U 21059CG  26186.35760252  .00062999  00000+0  49813-3 0  9995
2 48957  97.6709  27.7109 0003821 242.6219 117.4655 15.71169644280709
HAWK-5C                 
1 52754U 22057Y   26186.42303771  .00026568  00000+0  44126-3 0  9995
2 52754  97.6617 347.2763 0003764  22.2256 337.9158 15.52071555229175
HAWK-5B                 
1 52756U 22057AA  26186.42285309  .00026916  00000+0  44688-3 0  9993
2 52756  97.6632 345.6276 0004335  10.8237 349.3108 15.52076066229176
HAWK-5A                 
1 52757U 22057AB  26186.42265809  .00027082  00000+0  44963-3 0  9998
2 52757  97.6629 346.4586 0004251  15.3287 344.8093 15.52075855229176
HAWK-6B                 
1 55324U 23011A   26186.54345826  .00005864  00000+0  25146-3 0  9999
2 55324  40.4973 244.9952 0002680 186.8926 173.1847 15.23097731190648
HAWK-6C                 
1 55326U 23011C   26186.34612997  .00006946  00000+0  29629-3 0  9997
2 55326  40.4959 242.9826 0002970 169.3482 190.7391 15.23096524190623
HAWK-6A                 
1 55327U 23011D   26186.34616440  .00006947  00000+0  29635-3 0  9993
2 55327  40.4971 244.6088 0002531 168.0004 192.0866 15.23097691190624
HAWK-7A                 
1 56191U 23054P   26186.25687638  .00008543  00000+0  31957-3 0  9991
2 56191  97.2677  73.1345 0002593  13.0634 347.0672 15.27558118179785
