{"fetched_at":"2026-07-06T08:47:03.717Z","source":"https://celestrak.org/NORAD/elements/gp.php?NAME=HAWK&FORMAT=JSON","constellation":"hawkeye-360","records":[{"OBJECT_NAME":"HAWK-A","OBJECT_ID":"2018-099H","EPOCH":"2026-07-05T09:29:31.452288","CLASSIFICATION_TYPE":"U","MEAN_MOTION":15.24877386,"ECCENTRICITY":0.0033747,"INCLINATION":97.3899,"RA_OF_ASC_NODE":238.3955,"ARG_OF_PERICENTER":218.9339,"MEAN_ANOMALY":140.9468,"EPHEMERIS_TYPE":0,"NORAD_CAT_ID":43765,"ELEMENT_SET_NO":999,"REV_AT_EPOCH":41587,"BSTAR":0.00042633,"MEAN_MOTION_DOT":0.00010704,"MEAN_MOTION_DDOT":0},{"OBJECT_NAME":"HAWK-B","OBJECT_ID":"2018-099AN","EPOCH":"2026-07-05T13:41:07.889280","CLASSIFICATION_TYPE":"U","MEAN_MOTION":15.23039141,"ECCENTRICITY":0.00305707,"INCLINATION":97.3947,"RA_OF_ASC_NODE":237.9442,"ARG_OF_PERICENTER":236.9249,"MEAN_ANOMALY":122.9052,"EPHEMERIS_TYPE":0,"NORAD_CAT_ID":43794,"ELEMENT_SET_NO":999,"REV_AT_EPOCH":41583,"BSTAR":0.00037845684,"MEAN_MOTION_DOT":0.00008956,"MEAN_MOTION_DDOT":0},{"OBJECT_NAME":"HAWK-C","OBJECT_ID":"2018-099AT","EPOCH":"2026-07-05T03:13:16.093056","CLASSIFICATION_TYPE":"U","MEAN_MOTION":15.2837795,"ECCENTRICITY":0.0039337,"INCLINATION":97.3876,"RA_OF_ASC_NODE":239.1386,"ARG_OF_PERICENTER":219.8315,"MEAN_ANOMALY":140.0036,"EPHEMERIS_TYPE":0,"NORAD_CAT_ID":43799,"ELEMENT_SET_NO":999,"REV_AT_EPOCH":41665,"BSTAR":0.00049548,"MEAN_MOTION_DOT":0.00013944,"MEAN_MOTION_DDOT":0},{"OBJECT_NAME":"HAWK-2C","OBJECT_ID":"2021-006CT","EPOCH":"2026-07-05T01:58:01.542720","CLASSIFICATION_TYPE":"U","MEAN_MOTION":15.34896115,"ECCENTRICITY":0.0008329,"INCLINATION":97.2265,"RA_OF_ASC_NODE":230.036,"ARG_OF_PERICENTER":129.7517,"MEAN_ANOMALY":230.4462,"EPHEMERIS_TYPE":0,"NORAD_CAT_ID":47502,"ELEMENT_SET_NO":999,"REV_AT_EPOCH":30224,"BSTAR":0.00032819,"MEAN_MOTION_DOT":0.00011044,"MEAN_MOTION_DDOT":0},{"OBJECT_NAME":"HAWK-2A","OBJECT_ID":"2021-006CW","EPOCH":"2026-07-05T12:58:30.678240","CLASSIFICATION_TYPE":"U","MEAN_MOTION":15.34916957,"ECCENTRICITY":0.00078473,"INCLINATION":97.2307,"RA_OF_ASC_NODE":231.1741,"ARG_OF_PERICENTER":131.4447,"MEAN_ANOMALY":228.7472,"EPHEMERIS_TYPE":0,"NORAD_CAT_ID":47505,"ELEMENT_SET_NO":999,"REV_AT_EPOCH":30231,"BSTAR":0.00028002775,"MEAN_MOTION_DOT":0.00009415,"MEAN_MOTION_DDOT":0},{"OBJECT_NAME":"HAWK-2B","OBJECT_ID":"2021-006CZ","EPOCH":"2026-07-05T01:53:14.091648","CLASSIFICATION_TYPE":"U","MEAN_MOTION":15.35030031,"ECCENTRICITY":0.0008376,"INCLINATION":97.2176,"RA_OF_ASC_NODE":229.0244,"ARG_OF_PERICENTER":131.1027,"MEAN_ANOMALY":229.0942,"EPHEMERIS_TYPE":0,"NORAD_CAT_ID":47508,"ELEMENT_SET_NO":999,"REV_AT_EPOCH":30224,"BSTAR":0.0003758,"MEAN_MOTION_DOT":0.00012715,"MEAN_MOTION_DDOT":0},{"OBJECT_NAME":"HAWK-3B","OBJECT_ID":"2021-059BE","EPOCH":"2026-07-05T08:35:33.887904","CLASSIFICATION_TYPE":"U","MEAN_MOTION":15.71176,"ECCENTRICITY":0.0003633,"INCLINATION":97.6647,"RA_OF_ASC_NODE":24.8043,"ARG_OF_PERICENTER":237.9442,"MEAN_ANOMALY":122.1467,"EPHEMERIS_TYPE":0,"NORAD_CAT_ID":48931,"ELEMENT_SET_NO":999,"REV_AT_EPOCH":28070,"BSTAR":0.00048717,"MEAN_MOTION_DOT":0.00061613,"MEAN_MOTION_DDOT":0},{"OBJECT_NAME":"HAWK-3C","OBJECT_ID":"2021-059BX","EPOCH":"2026-07-05T02:28:15.636864","CLASSIFICATION_TYPE":"U","MEAN_MOTION":15.71143486,"ECCENTRICITY":0.0003826,"INCLINATION":97.6762,"RA_OF_ASC_NODE":30.2409,"ARG_OF_PERICENTER":241.0163,"MEAN_ANOMALY":119.0716,"EPHEMERIS_TYPE":0,"NORAD_CAT_ID":48948,"ELEMENT_SET_NO":999,"REV_AT_EPOCH":28066,"BSTAR":0.00053471,"MEAN_MOTION_DOT":0.00067598,"MEAN_MOTION_DDOT":0},{"OBJECT_NAME":"HAWK-3A","OBJECT_ID":"2021-059CG","EPOCH":"2026-07-05T08:34:56.856864","CLASSIFICATION_TYPE":"U","MEAN_MOTION":15.71169644,"ECCENTRICITY":0.0003821,"INCLINATION":97.6709,"RA_OF_ASC_NODE":27.7109,"ARG_OF_PERICENTER":242.6219,"MEAN_ANOMALY":117.4655,"EPHEMERIS_TYPE":0,"NORAD_CAT_ID":48957,"ELEMENT_SET_NO":999,"REV_AT_EPOCH":28070,"BSTAR":0.00049813,"MEAN_MOTION_DOT":0.00062999,"MEAN_MOTION_DDOT":0},{"OBJECT_NAME":"HAWK-5C","OBJECT_ID":"2022-057Y","EPOCH":"2026-07-05T10:09:10.458144","CLASSIFICATION_TYPE":"U","MEAN_MOTION":15.52071555,"ECCENTRICITY":0.0003764,"INCLINATION":97.6617,"RA_OF_ASC_NODE":347.2763,"ARG_OF_PERICENTER":22.2256,"MEAN_ANOMALY":337.9158,"EPHEMERIS_TYPE":0,"NORAD_CAT_ID":52754,"ELEMENT_SET_NO":999,"REV_AT_EPOCH":22917,"BSTAR":0.00044126,"MEAN_MOTION_DOT":0.00026568,"MEAN_MOTION_DDOT":0},{"OBJECT_NAME":"HAWK-5B","OBJECT_ID":"2022-057AA","EPOCH":"2026-07-05T10:08:54.506112","CLASSIFICATION_TYPE":"U","MEAN_MOTION":15.52076066,"ECCENTRICITY":0.0004336,"INCLINATION":97.6632,"RA_OF_ASC_NODE":345.6276,"ARG_OF_PERICENTER":10.8237,"MEAN_ANOMALY":349.3108,"EPHEMERIS_TYPE":0,"NORAD_CAT_ID":52756,"ELEMENT_SET_NO":999,"REV_AT_EPOCH":22917,"BSTAR":0.00044688,"MEAN_MOTION_DOT":0.00026916,"MEAN_MOTION_DDOT":0},{"OBJECT_NAME":"HAWK-5A","OBJECT_ID":"2022-057AB","EPOCH":"2026-07-05T10:08:37.658112","CLASSIFICATION_TYPE":"U","MEAN_MOTION":15.52075855,"ECCENTRICITY":0.0004251,"INCLINATION":97.6629,"RA_OF_ASC_NODE":346.4586,"ARG_OF_PERICENTER":15.3287,"MEAN_ANOMALY":344.8093,"EPHEMERIS_TYPE":0,"NORAD_CAT_ID":52757,"ELEMENT_SET_NO":999,"REV_AT_EPOCH":22917,"BSTAR":0.00044963,"MEAN_MOTION_DOT":0.00027082,"MEAN_MOTION_DDOT":0},{"OBJECT_NAME":"HAWK-6B","OBJECT_ID":"2023-011A","EPOCH":"2026-07-05T13:02:34.793664","CLASSIFICATION_TYPE":"U","MEAN_MOTION":15.23097731,"ECCENTRICITY":0.00026803,"INCLINATION":40.4973,"RA_OF_ASC_NODE":244.9952,"ARG_OF_PERICENTER":186.8926,"MEAN_ANOMALY":173.1847,"EPHEMERIS_TYPE":0,"NORAD_CAT_ID":55324,"ELEMENT_SET_NO":999,"REV_AT_EPOCH":19064,"BSTAR":0.00025146389,"MEAN_MOTION_DOT":0.00005864,"MEAN_MOTION_DDOT":0},{"OBJECT_NAME":"HAWK-6C","OBJECT_ID":"2023-011C","EPOCH":"2026-07-05T08:18:25.629408","CLASSIFICATION_TYPE":"U","MEAN_MOTION":15.23096524,"ECCENTRICITY":0.0002971,"INCLINATION":40.4959,"RA_OF_ASC_NODE":242.9826,"ARG_OF_PERICENTER":169.3482,"MEAN_ANOMALY":190.7391,"EPHEMERIS_TYPE":0,"NORAD_CAT_ID":55326,"ELEMENT_SET_NO":999,"REV_AT_EPOCH":19062,"BSTAR":0.00029629,"MEAN_MOTION_DOT":0.00006946,"MEAN_MOTION_DDOT":0},{"OBJECT_NAME":"HAWK-6A","OBJECT_ID":"2023-011D","EPOCH":"2026-07-05T08:18:28.604160","CLASSIFICATION_TYPE":"U","MEAN_MOTION":15.23097691,"ECCENTRICITY":0.0002531,"INCLINATION":40.4971,"RA_OF_ASC_NODE":244.6088,"ARG_OF_PERICENTER":168.0004,"MEAN_ANOMALY":192.0866,"EPHEMERIS_TYPE":0,"NORAD_CAT_ID":55327,"ELEMENT_SET_NO":999,"REV_AT_EPOCH":19062,"BSTAR":0.00029635,"MEAN_MOTION_DOT":0.00006947,"MEAN_MOTION_DDOT":0},{"OBJECT_NAME":"HAWK-7A","OBJECT_ID":"2023-054P","EPOCH":"2026-07-05T06:09:54.119232","CLASSIFICATION_TYPE":"U","MEAN_MOTION":15.27558118,"ECCENTRICITY":0.0002593,"INCLINATION":97.2677,"RA_OF_ASC_NODE":73.1345,"ARG_OF_PERICENTER":13.0634,"MEAN_ANOMALY":347.0672,"EPHEMERIS_TYPE":0,"NORAD_CAT_ID":56191,"ELEMENT_SET_NO":999,"REV_AT_EPOCH":17978,"BSTAR":0.00031957,"MEAN_MOTION_DOT":0.00008543,"MEAN_MOTION_DDOT":0}]}
